<?xml version="1.0" encoding="UTF-8"?>
<kml xmlns="http://www.opengis.net/kml/2.2">
<Document>
  <name>Trayectorias de Vuelos</name>
<Placemark>
  <name>Vuelo ECMKN</name>
  <Style>
    <LineStyle>
      <color>ff00ff00</color>
      <width>2</width>
    </LineStyle>
  </Style>
  <LineString>
    <coordinates>
      25.479166666666664,36.399166666666666,0
      2.083294,41.297445,0
    </coordinates>
  </LineString>
</Placemark>
<Placemark>
  <name>Vuelo N761AJ</name>
  <Style>
    <LineStyle>
      <color>ff0000ff</color>
      <width>2</width>
    </LineStyle>
  </Style>
  <LineString>
    <coordinates>
      -73.77833333333334,40.640277777777776,0
      2.083294,41.297445,0
    </coordinates>
  </LineString>
</Placemark>
<Placemark>
  <name>Vuelo ECMAI</name>
  <Style>
    <LineStyle>
      <color>ff00ff00</color>
      <width>2</width>
    </LineStyle>
  </Style>
  <LineString>
    <coordinates>
      -22.605555555555558,63.985,0
      2.083294,41.297445,0
    </coordinates>
  </LineString>
</Placemark>
<Placemark>
  <name>Vuelo ECLZZ</name>
  <Style>
    <LineStyle>
      <color>ff0000ff</color>
      <width>2</width>
    </LineStyle>
  </Style>
  <LineString>
    <coordinates>
      39.169999999999995,45.03472222222222,0
      2.083294,41.297445,0
    </coordinates>
  </LineString>
</Placemark>
<Placemark>
  <name>Vuelo VQBTN</name>
  <Style>
    <LineStyle>
      <color>ff0000ff</color>
      <width>2</width>
    </LineStyle>
  </Style>
  <LineString>
    <coordinates>
      37.41305555555555,55.972500000000004,0
      2.083294,41.297445,0
    </coordinates>
  </LineString>
</Placemark>
<Placemark>
  <name>Vuelo OHLZD</name>
  <Style>
    <LineStyle>
      <color>ff00ff00</color>
      <width>2</width>
    </LineStyle>
  </Style>
  <LineString>
    <coordinates>
      24.96333333333333,60.31722222222223,0
      2.083294,41.297445,0
    </coordinates>
  </LineString>
</Placemark>
<Placemark>
  <name>Vuelo N823NW</name>
  <Style>
    <LineStyle>
      <color>ff0000ff</color>
      <width>2</width>
    </LineStyle>
  </Style>
  <LineString>
    <coordinates>
      -84.43333333333334,33.63333333333333,0
      2.083294,41.297445,0
    </coordinates>
  </LineString>
</Placemark>
<Placemark>
  <name>Vuelo ECMEA</name>
  <Style>
    <LineStyle>
      <color>ff0000ff</color>
      <width>2</width>
    </LineStyle>
  </Style>
  <LineString>
    <coordinates>
      30.2625,59.80027777777777,0
      2.083294,41.297445,0
    </coordinates>
  </LineString>
</Placemark>
<Placemark>
  <name>Vuelo ECLZN</name>
  <Style>
    <LineStyle>
      <color>ff00ff00</color>
      <width>2</width>
    </LineStyle>
  </Style>
  <LineString>
    <coordinates>
      25.34722222222222,37.43722222222222,0
      2.083294,41.297445,0
    </coordinates>
  </LineString>
</Placemark>
<Placemark>
  <name>Vuelo ECMGE</name>
  <Style>
    <LineStyle>
      <color>ff0000ff</color>
      <width>2</width>
    </LineStyle>
  </Style>
  <LineString>
    <coordinates>
      37.906388888888884,55.40861111111111,0
      2.083294,41.297445,0
    </coordinates>
  </LineString>
</Placemark>
<Placemark>
  <name>Vuelo ECMEQ</name>
  <Style>
    <LineStyle>
      <color>ff0000ff</color>
      <width>2</width>
    </LineStyle>
  </Style>
  <LineString>
    <coordinates>
      35.49,33.81916666666667,0
      2.083294,41.297445,0
    </coordinates>
  </LineString>
</Placemark>
<Placemark>
  <name>Vuelo N76054</name>
  <Style>
    <LineStyle>
      <color>ff0000ff</color>
      <width>2</width>
    </LineStyle>
  </Style>
  <LineString>
    <coordinates>
      -74.16833333333334,40.696666666666665,0
      2.083294,41.297445,0
    </coordinates>
  </LineString>
</Placemark>
<Placemark>
  <name>Vuelo 9VSWD</name>
  <Style>
    <LineStyle>
      <color>ff0000ff</color>
      <width>2</width>
    </LineStyle>
  </Style>
  <LineString>
    <coordinates>
      -46.47,-23.433333333333334,0
      2.083294,41.297445,0
    </coordinates>
  </LineString>
</Placemark>
<Placemark>
  <name>Vuelo TCJNZ</name>
  <Style>
    <LineStyle>
      <color>ff0000ff</color>
      <width>2</width>
    </LineStyle>
  </Style>
  <LineString>
    <coordinates>
      28.81416666666667,40.976111111111116,0
      2.083294,41.297445,0
    </coordinates>
  </LineString>
</Placemark>
<Placemark>
  <name>Vuelo CGHLQ</name>
  <Style>
    <LineStyle>
      <color>ff0000ff</color>
      <width>2</width>
    </LineStyle>
  </Style>
  <LineString>
    <coordinates>
      -73.74138888888889,45.46805555555556,0
      2.083294,41.297445,0
    </coordinates>
  </LineString>
</Placemark>
<Placemark>
  <name>Vuelo ECMBK</name>
  <Style>
    <LineStyle>
      <color>ff0000ff</color>
      <width>2</width>
    </LineStyle>
  </Style>
  <LineString>
    <coordinates>
      49.280277777777776,55.606944444444444,0
      2.083294,41.297445,0
    </coordinates>
  </LineString>
</Placemark>
<Placemark>
  <name>Vuelo ECLUT</name>
  <Style>
    <LineStyle>
      <color>ff0000ff</color>
      <width>2</width>
    </LineStyle>
  </Style>
  <LineString>
    <coordinates>
      34.885555555555555,32.00944444444445,0
      2.083294,41.297445,0
    </coordinates>
  </LineString>
</Placemark>
<Placemark>
  <name>Vuelo N790AN</name>
  <Style>
    <LineStyle>
      <color>ff0000ff</color>
      <width>2</width>
    </LineStyle>
  </Style>
  <LineString>
    <coordinates>
      -80.28333333333333,25.8,0
      2.083294,41.297445,0
    </coordinates>
  </LineString>
</Placemark>
<Placemark>
  <name>Vuelo ECMMU</name>
  <Style>
    <LineStyle>
      <color>ff0000ff</color>
      <width>2</width>
    </LineStyle>
  </Style>
  <LineString>
    <coordinates>
      -15.386666666666667,27.931944444444447,0
      2.083294,41.297445,0
    </coordinates>
  </LineString>
</Placemark>
<Placemark>
  <name>Vuelo LNRNO</name>
  <Style>
    <LineStyle>
      <color>ff00ff00</color>
      <width>2</width>
    </LineStyle>
  </Style>
  <LineString>
    <coordinates>
      11.08388888888889,60.20277777777778,0
      2.083294,41.297445,0
    </coordinates>
  </LineString>
</Placemark>
<Placemark>
  <name>Vuelo N290AY</name>
  <Style>
    <LineStyle>
      <color>ff0000ff</color>
      <width>2</width>
    </LineStyle>
  </Style>
  <LineString>
    <coordinates>
      -75.245,39.87,0
      2.083294,41.297445,0
    </coordinates>
  </LineString>
</Placemark>
<Placemark>
  <name>Vuelo VQBHK</name>
  <Style>
    <LineStyle>
      <color>ff0000ff</color>
      <width>2</width>
    </LineStyle>
  </Style>
  <LineString>
    <coordinates>
      37.41305555555555,55.972500000000004,0
      2.083294,41.297445,0
    </coordinates>
  </LineString>
</Placemark>
<Placemark>
  <name>Vuelo ECMMH</name>
  <Style>
    <LineStyle>
      <color>ff0000ff</color>
      <width>2</width>
    </LineStyle>
  </Style>
  <LineString>
    <coordinates>
      -16.341666666666665,28.482777777777777,0
      2.083294,41.297445,0
    </coordinates>
  </LineString>
</Placemark>
<Placemark>
  <name>Vuelo VPBWG</name>
  <Style>
    <LineStyle>
      <color>ff0000ff</color>
      <width>2</width>
    </LineStyle>
  </Style>
  <LineString>
    <coordinates>
      30.2625,59.80027777777777,0
      2.083294,41.297445,0
    </coordinates>
  </LineString>
</Placemark>
<Placemark>
  <name>Vuelo LNNGP</name>
  <Style>
    <LineStyle>
      <color>ff00ff00</color>
      <width>2</width>
    </LineStyle>
  </Style>
  <LineString>
    <coordinates>
      11.08388888888889,60.20277777777778,0
      2.083294,41.297445,0
    </coordinates>
  </LineString>
</Placemark>
<Placemark>
  <name>Vuelo N900JG</name>
  <Style>
    <LineStyle>
      <color>ff0000ff</color>
      <width>2</width>
    </LineStyle>
  </Style>
  <LineString>
    <coordinates>
      34.885555555555555,32.00944444444445,0
      2.083294,41.297445,0
    </coordinates>
  </LineString>
</Placemark>
<Placemark>
  <name>Vuelo CFIYE</name>
  <Style>
    <LineStyle>
      <color>ff0000ff</color>
      <width>2</width>
    </LineStyle>
  </Style>
  <LineString>
    <coordinates>
      -79.63055555555555,43.67722222222222,0
      2.083294,41.297445,0
    </coordinates>
  </LineString>
</Placemark>
<Placemark>
  <name>Vuelo ECLQK</name>
  <Style>
    <LineStyle>
      <color>ff0000ff</color>
      <width>2</width>
    </LineStyle>
  </Style>
  <LineString>
    <coordinates>
      34.885555555555555,32.00944444444445,0
      2.083294,41.297445,0
    </coordinates>
  </LineString>
</Placemark>
<Placemark>
  <name>Vuelo N803NW</name>
  <Style>
    <LineStyle>
      <color>ff0000ff</color>
      <width>2</width>
    </LineStyle>
  </Style>
  <LineString>
    <coordinates>
      -73.77833333333334,40.640277777777776,0
      2.083294,41.297445,0
    </coordinates>
  </LineString>
</Placemark>
<Placemark>
  <name>Vuelo N283AY</name>
  <Style>
    <LineStyle>
      <color>ff0000ff</color>
      <width>2</width>
    </LineStyle>
  </Style>
  <LineString>
    <coordinates>
      -80.95,35.21666666666667,0
      2.083294,41.297445,0
    </coordinates>
  </LineString>
</Placemark>
<Placemark>
  <name>Vuelo CFDAT</name>
  <Style>
    <LineStyle>
      <color>ff0000ff</color>
      <width>2</width>
    </LineStyle>
  </Style>
  <LineString>
    <coordinates>
      -73.74138888888889,45.46805555555556,0
      2.083294,41.297445,0
    </coordinates>
  </LineString>
</Placemark>
<Placemark>
  <name>Vuelo CGTSW</name>
  <Style>
    <LineStyle>
      <color>ff0000ff</color>
      <width>2</width>
    </LineStyle>
  </Style>
  <LineString>
    <coordinates>
      -79.63055555555555,43.67722222222222,0
      2.083294,41.297445,0
    </coordinates>
  </LineString>
</Placemark>
<Placemark>
  <name>Vuelo N76062</name>
  <Style>
    <LineStyle>
      <color>ff0000ff</color>
      <width>2</width>
    </LineStyle>
  </Style>
  <LineString>
    <coordinates>
      -77.45666666666666,38.94499999999999,0
      2.083294,41.297445,0
    </coordinates>
  </LineString>
</Placemark>
<Placemark>
  <name>Vuelo URPSS</name>
  <Style>
    <LineStyle>
      <color>ff0000ff</color>
      <width>2</width>
    </LineStyle>
  </Style>
  <LineString>
    <coordinates>
      30.893333333333334,50.344722222222224,0
      2.083294,41.297445,0
    </coordinates>
  </LineString>
</Placemark>
<Placemark>
  <name>Vuelo 4XELD</name>
  <Style>
    <LineStyle>
      <color>ff0000ff</color>
      <width>2</width>
    </LineStyle>
  </Style>
  <LineString>
    <coordinates>
      34.885555555555555,32.00944444444445,0
      2.083294,41.297445,0
    </coordinates>
  </LineString>
</Placemark>
<Placemark>
  <name>Vuelo TCJVM</name>
  <Style>
    <LineStyle>
      <color>ff0000ff</color>
      <width>2</width>
    </LineStyle>
  </Style>
  <LineString>
    <coordinates>
      29.309166666666666,40.89833333333333,0
      2.083294,41.297445,0
    </coordinates>
  </LineString>
</Placemark>
<Placemark>
  <name>Vuelo URPSO</name>
  <Style>
    <LineStyle>
      <color>ff0000ff</color>
      <width>2</width>
    </LineStyle>
  </Style>
  <LineString>
    <coordinates>
      30.893333333333334,50.344722222222224,0
      2.083294,41.297445,0
    </coordinates>
  </LineString>
</Placemark>
<Placemark>
  <name>Vuelo A7AEC</name>
  <Style>
    <LineStyle>
      <color>ff0000ff</color>
      <width>2</width>
    </LineStyle>
  </Style>
  <LineString>
    <coordinates>
      51.608333333333334,25.274444444444445,0
      2.083294,41.297445,0
    </coordinates>
  </LineString>
</Placemark>
<Placemark>
  <name>Vuelo A6EOP</name>
  <Style>
    <LineStyle>
      <color>ff0000ff</color>
      <width>2</width>
    </LineStyle>
  </Style>
  <LineString>
    <coordinates>
      55.36,25.249166666666667,0
      2.083294,41.297445,0
    </coordinates>
  </LineString>
</Placemark>
<Placemark>
  <name>Vuelo TCJHZ</name>
  <Style>
    <LineStyle>
      <color>ff0000ff</color>
      <width>2</width>
    </LineStyle>
  </Style>
  <LineString>
    <coordinates>
      28.81416666666667,40.976111111111116,0
      2.083294,41.297445,0
    </coordinates>
  </LineString>
</Placemark>
<Placemark>
  <name>Vuelo EIDHT</name>
  <Style>
    <LineStyle>
      <color>ff00ff00</color>
      <width>2</width>
    </LineStyle>
  </Style>
  <LineString>
    <coordinates>
      25.28777777777778,54.636944444444445,0
      2.083294,41.297445,0
    </coordinates>
  </LineString>
</Placemark>
<Placemark>
  <name>Vuelo TCCPG</name>
  <Style>
    <LineStyle>
      <color>ff0000ff</color>
      <width>2</width>
    </LineStyle>
  </Style>
  <LineString>
    <coordinates>
      29.309166666666666,40.89833333333333,0
      2.083294,41.297445,0
    </coordinates>
  </LineString>
</Placemark>
<Placemark>
  <name>Vuelo SUGCE</name>
  <Style>
    <LineStyle>
      <color>ff0000ff</color>
      <width>2</width>
    </LineStyle>
  </Style>
  <LineString>
    <coordinates>
      31.413888888888888,30.11138888888889,0
      2.083294,41.297445,0
    </coordinates>
  </LineString>
</Placemark>
<Placemark>
  <name>Vuelo N969AV</name>
  <Style>
    <LineStyle>
      <color>ff0000ff</color>
      <width>2</width>
    </LineStyle>
  </Style>
  <LineString>
    <coordinates>
      -74.15,4.7,0
      2.083294,41.297445,0
    </coordinates>
  </LineString>
</Placemark>
<Placemark>
  <name>Vuelo EIFJL</name>
  <Style>
    <LineStyle>
      <color>ff00ff00</color>
      <width>2</width>
    </LineStyle>
  </Style>
  <LineString>
    <coordinates>
      5.218055555555556,60.29361111111111,0
      2.083294,41.297445,0
    </coordinates>
  </LineString>
</Placemark>
<Placemark>
  <name>Vuelo EIFJM</name>
  <Style>
    <LineStyle>
      <color>ff00ff00</color>
      <width>2</width>
    </LineStyle>
  </Style>
  <LineString>
    <coordinates>
      17.91861111111111,59.651944444444446,0
      2.083294,41.297445,0
    </coordinates>
  </LineString>
</Placemark>
<Placemark>
  <name>Vuelo OYRUP</name>
  <Style>
    <LineStyle>
      <color>ff0000ff</color>
      <width>2</width>
    </LineStyle>
  </Style>
  <LineString>
    <coordinates>
      -16.341666666666665,28.482777777777777,0
      2.083294,41.297445,0
    </coordinates>
  </LineString>
</Placemark>
<Placemark>
  <name>Vuelo LVCSX</name>
  <Style>
    <LineStyle>
      <color>ff0000ff</color>
      <width>2</width>
    </LineStyle>
  </Style>
  <LineString>
    <coordinates>
      -58.53583333333333,-34.82222222222222,0
      2.083294,41.297445,0
    </coordinates>
  </LineString>
</Placemark>
<Placemark>
  <name>Vuelo VQBBG</name>
  <Style>
    <LineStyle>
      <color>ff0000ff</color>
      <width>2</width>
    </LineStyle>
  </Style>
  <LineString>
    <coordinates>
      37.41305555555555,55.972500000000004,0
      2.083294,41.297445,0
    </coordinates>
  </LineString>
</Placemark>
<Placemark>
  <name>Vuelo PTMSV</name>
  <Style>
    <LineStyle>
      <color>ff0000ff</color>
      <width>2</width>
    </LineStyle>
  </Style>
  <LineString>
    <coordinates>
      -46.47,-23.433333333333334,0
      2.083294,41.297445,0
    </coordinates>
  </LineString>
</Placemark>
<Placemark>
  <name>Vuelo EIFJK</name>
  <Style>
    <LineStyle>
      <color>ff00ff00</color>
      <width>2</width>
    </LineStyle>
  </Style>
  <LineString>
    <coordinates>
      24.96333333333333,60.31722222222223,0
      2.083294,41.297445,0
    </coordinates>
  </LineString>
</Placemark>
<Placemark>
  <name>Vuelo TCJIP</name>
  <Style>
    <LineStyle>
      <color>ff0000ff</color>
      <width>2</width>
    </LineStyle>
  </Style>
  <LineString>
    <coordinates>
      28.81416666666667,40.976111111111116,0
      2.083294,41.297445,0
    </coordinates>
  </LineString>
</Placemark>
<Placemark>
  <name>Vuelo TCDCF</name>
  <Style>
    <LineStyle>
      <color>ff0000ff</color>
      <width>2</width>
    </LineStyle>
  </Style>
  <LineString>
    <coordinates>
      29.309166666666666,40.89833333333333,0
      2.083294,41.297445,0
    </coordinates>
  </LineString>
</Placemark>
<Placemark>
  <name>Vuelo VPBAS</name>
  <Style>
    <LineStyle>
      <color>ff0000ff</color>
      <width>2</width>
    </LineStyle>
  </Style>
  <LineString>
    <coordinates>
      37.906388888888884,55.40861111111111,0
      2.083294,41.297445,0
    </coordinates>
  </LineString>
</Placemark>
<Placemark>
  <name>Vuelo ECJFF</name>
  <Style>
    <LineStyle>
      <color>ff0000ff</color>
      <width>2</width>
    </LineStyle>
  </Style>
  <LineString>
    <coordinates>
      -13.863888888888889,28.452777777777776,0
      2.083294,41.297445,0
    </coordinates>
  </LineString>
</Placemark>
<Placemark>
  <name>Vuelo LNRRG</name>
  <Style>
    <LineStyle>
      <color>ff00ff00</color>
      <width>2</width>
    </LineStyle>
  </Style>
  <LineString>
    <coordinates>
      11.08388888888889,60.20277777777778,0
      2.083294,41.297445,0
    </coordinates>
  </LineString>
</Placemark>
<Placemark>
  <name>Vuelo ECMMH</name>
  <Style>
    <LineStyle>
      <color>ff0000ff</color>
      <width>2</width>
    </LineStyle>
  </Style>
  <LineString>
    <coordinates>
      -16.341666666666665,28.482777777777777,0
      2.083294,41.297445,0
    </coordinates>
  </LineString>
</Placemark>
<Placemark>
  <name>Vuelo EIDHO</name>
  <Style>
    <LineStyle>
      <color>ff00ff00</color>
      <width>2</width>
    </LineStyle>
  </Style>
  <LineString>
    <coordinates>
      16.90361111111111,58.78861111111111,0
      2.083294,41.297445,0
    </coordinates>
  </LineString>
</Placemark>
<Placemark>
  <name>Vuelo HALWY</name>
  <Style>
    <LineStyle>
      <color>ff00ff00</color>
      <width>2</width>
    </LineStyle>
  </Style>
  <LineString>
    <coordinates>
      23.97111111111111,56.92361111111111,0
      2.083294,41.297445,0
    </coordinates>
  </LineString>
</Placemark>
<Placemark>
  <name>Vuelo LNDYP</name>
  <Style>
    <LineStyle>
      <color>ff00ff00</color>
      <width>2</width>
    </LineStyle>
  </Style>
  <LineString>
    <coordinates>
      17.91861111111111,59.651944444444446,0
      2.083294,41.297445,0
    </coordinates>
  </LineString>
</Placemark>
<Placemark>
  <name>Vuelo ECMFB</name>
  <Style>
    <LineStyle>
      <color>ff00ff00</color>
      <width>2</width>
    </LineStyle>
  </Style>
  <LineString>
    <coordinates>
      11.08388888888889,60.20277777777778,0
      2.083294,41.297445,0
    </coordinates>
  </LineString>
</Placemark>
<Placemark>
  <name>Vuelo ECMMU</name>
  <Style>
    <LineStyle>
      <color>ff0000ff</color>
      <width>2</width>
    </LineStyle>
  </Style>
  <LineString>
    <coordinates>
      -15.386666666666667,27.931944444444447,0
      2.083294,41.297445,0
    </coordinates>
  </LineString>
</Placemark>
<Placemark>
  <name>Vuelo ECLUT</name>
  <Style>
    <LineStyle>
      <color>ff0000ff</color>
      <width>2</width>
    </LineStyle>
  </Style>
  <LineString>
    <coordinates>
      -16.341666666666665,28.482777777777777,0
      2.083294,41.297445,0
    </coordinates>
  </LineString>
</Placemark>
<Placemark>
  <name>Vuelo A7ACD</name>
  <Style>
    <LineStyle>
      <color>ff0000ff</color>
      <width>2</width>
    </LineStyle>
  </Style>
  <LineString>
    <coordinates>
      51.608333333333334,25.274444444444445,0
      2.083294,41.297445,0
    </coordinates>
  </LineString>
</Placemark>
<Placemark>
  <name>Vuelo OHLZB</name>
  <Style>
    <LineStyle>
      <color>ff00ff00</color>
      <width>2</width>
    </LineStyle>
  </Style>
  <LineString>
    <coordinates>
      24.96333333333333,60.31722222222223,0
      2.083294,41.297445,0
    </coordinates>
  </LineString>
</Placemark>
<Placemark>
  <name>Vuelo A6EEH</name>
  <Style>
    <LineStyle>
      <color>ff0000ff</color>
      <width>2</width>
    </LineStyle>
  </Style>
  <LineString>
    <coordinates>
      55.36,25.249166666666667,0
      2.083294,41.297445,0
    </coordinates>
  </LineString>
</Placemark>
<Placemark>
  <name>Vuelo CSTRN</name>
  <Style>
    <LineStyle>
      <color>ff00ff00</color>
      <width>2</width>
    </LineStyle>
  </Style>
  <LineString>
    <coordinates>
      17.91861111111111,59.651944444444446,0
      2.083294,41.297445,0
    </coordinates>
  </LineString>
</Placemark>
<Placemark>
  <name>Vuelo EIDLH</name>
  <Style>
    <LineStyle>
      <color>ff0000ff</color>
      <width>2</width>
    </LineStyle>
  </Style>
  <LineString>
    <coordinates>
      -15.386666666666667,27.931944444444447,0
      2.083294,41.297445,0
    </coordinates>
  </LineString>
</Placemark>
<Placemark>
  <name>Vuelo N900AL</name>
  <Style>
    <LineStyle>
      <color>ff0000ff</color>
      <width>2</width>
    </LineStyle>
  </Style>
  <LineString>
    <coordinates>
      39.20333333333333,-6.875555555555556,0
      2.083294,41.297445,0
    </coordinates>
  </LineString>
</Placemark>
<Placemark>
  <name>Vuelo ECMKT</name>
  <Style>
    <LineStyle>
      <color>ff00ff00</color>
      <width>2</width>
    </LineStyle>
  </Style>
  <LineString>
    <coordinates>
      24.96333333333333,60.31722222222223,0
      2.083294,41.297445,0
    </coordinates>
  </LineString>
</Placemark>
<Placemark>
  <name>Vuelo EIFHS</name>
  <Style>
    <LineStyle>
      <color>ff00ff00</color>
      <width>2</width>
    </LineStyle>
  </Style>
  <LineString>
    <coordinates>
      11.08388888888889,60.20277777777778,0
      2.083294,41.297445,0
    </coordinates>
  </LineString>
</Placemark>
<Placemark>
  <name>Vuelo TFBRO</name>
  <Style>
    <LineStyle>
      <color>ff00ff00</color>
      <width>2</width>
    </LineStyle>
  </Style>
  <LineString>
    <coordinates>
      -22.605555555555558,63.985,0
      2.083294,41.297445,0
    </coordinates>
  </LineString>
</Placemark>
<Placemark>
  <name>Vuelo ERAXP</name>
  <Style>
    <LineStyle>
      <color>ff0000ff</color>
      <width>2</width>
    </LineStyle>
  </Style>
  <LineString>
    <coordinates>
      28.930833333333336,46.92777777777778,0
      2.083294,41.297445,0
    </coordinates>
  </LineString>
</Placemark>
<Placemark>
  <name>Vuelo TCJRF</name>
  <Style>
    <LineStyle>
      <color>ff0000ff</color>
      <width>2</width>
    </LineStyle>
  </Style>
  <LineString>
    <coordinates>
      28.81416666666667,40.976111111111116,0
      2.083294,41.297445,0
    </coordinates>
  </LineString>
</Placemark>
<Placemark>
  <name>Vuelo EIFJN</name>
  <Style>
    <LineStyle>
      <color>ff00ff00</color>
      <width>2</width>
    </LineStyle>
  </Style>
  <LineString>
    <coordinates>
      11.08388888888889,60.20277777777778,0
      2.083294,41.297445,0
    </coordinates>
  </LineString>
</Placemark>
<Placemark>
  <name>Vuelo VPBZA</name>
  <Style>
    <LineStyle>
      <color>ff0000ff</color>
      <width>2</width>
    </LineStyle>
  </Style>
  <LineString>
    <coordinates>
      37.41305555555555,55.972500000000004,0
      2.083294,41.297445,0
    </coordinates>
  </LineString>
</Placemark>
<Placemark>
  <name>Vuelo VPBRI</name>
  <Style>
    <LineStyle>
      <color>ff0000ff</color>
      <width>2</width>
    </LineStyle>
  </Style>
  <LineString>
    <coordinates>
      37.906388888888884,55.40861111111111,0
      2.083294,41.297445,0
    </coordinates>
  </LineString>
</Placemark>
<Placemark>
  <name>Vuelo OYRUP</name>
  <Style>
    <LineStyle>
      <color>ff0000ff</color>
      <width>2</width>
    </LineStyle>
  </Style>
  <LineString>
    <coordinates>
      -15.386666666666667,27.931944444444447,0
      2.083294,41.297445,0
    </coordinates>
  </LineString>
</Placemark>
<Placemark>
  <name>Vuelo YLPSH</name>
  <Style>
    <LineStyle>
      <color>ff00ff00</color>
      <width>2</width>
    </LineStyle>
  </Style>
  <LineString>
    <coordinates>
      -22.605555555555558,63.985,0
      2.083294,41.297445,0
    </coordinates>
  </LineString>
</Placemark>
</Document>
</kml>
